0 EXPRESS 2A
1 26098U 00013A   13282.60101295 -.00000334  00000-0  10000-3 0   793
2 26098 006.7581 056.6959 0031720 090.7927 189.9228 01.00282211 49729
0 EXPRESS 2A
1 26098U 00013A   13282.82182123  .00000000  00000-0  10000-3 0   807
2 26098 006.7573 056.6915 0030695 092.2442 268.1562 01.00266690 49736
0 EXPRESS 2A
1 26098U 00013A   13283.83355749 -.00000338  00000-0  10000-3 0   800
2 26098 006.7605 056.6827 0031721 090.9092 274.7919 01.00281410 49748
0 EXPRESS 2A
1 26098U 00013A   13285.97937459 -.00000343  00000-0  10000-3 0   829
2 26098 006.7648 056.6603 0031765 091.2558 329.1446 01.00280417 49764
0 EXPRESS 2A
1 26098U 00013A   13286.98782711 -.00000343  00000-0  10000-3 0   831
2 26098 006.7668 056.6502 0031699 091.4816 332.9941 01.00279927 49776
0 EXPRESS 2A
1 26098U 00013A   13288.01847881 -.00000344  00000-0  10000-3 0   849
2 26098 006.7688 056.6395 0031661 091.6926 344.8721 01.00279468 49780
0 EXPRESS 2A
1 26098U 00013A   13289.87718154 -.00000342  00000-0  10000-3 0   853
2 26098 006.7723 056.6200 0031573 091.9321 295.6650 01.00278733 49800
0 EXPRESS 2A
1 26098U 00013A   13290.92483074 -.00000341  00000-0  10000-3 0   861
2 26098 006.7744 056.6088 0031618 092.1600 313.6605 01.00278326 49810
0 EXPRESS 2A
1 26098U 00013A   13291.99137260 -.00000340  00000-0  10000-3 0   872
2 26098 006.7769 056.5979 0031450 092.4439 338.4173 01.00277917 49823
0 EXPRESS 2A
1 26098U 00013A   13293.83816843 -.00000337  00000-0  10000-3 0   885
2 26098 006.7804 056.5778 0031437 092.5250 285.0626 01.00277206 49840
0 EXPRESS 2A
1 26098U 00013A   13294.99216472 -.00000336  00000-0  10000-3 0   895
2 26098 006.7827 056.5650 0031409 092.5490 341.6499 01.00276758 49858
